CTC2_L_00451016-03
1 42188U 24922CU  26070.40848380  .00000000  00000+0  00000-0 0  9991
2 42188  65.0000 180.0000 0000000   0.0000   0.0000 15.90815360    14
CTC2_L_00451016-04
1 42189U 23295UD  26070.40848380  .00000000  00000+0  00000-0 0  9994
2 42189  65.0000 180.0000 0000000   0.0000  90.0000 15.90815360    14
CTC2_L_00451017-01
1 42190U 24358NR  26070.40848380  .00000000  00000+0  00000-0 0  9997
2 42190  65.0000 192.0000 0000000   0.0000 192.0000 15.90815360    12
CTC2_L_00451017-02
1 42191U 24346II  26070.40848380  .00000000  00000+0  00000-0 0  9995
2 42191  65.0000 192.0000 0000000   0.0000 282.0000 15.90815360    13
CTC2_L_00451017-03
1 42192U 25411BP  26070.40848380  .00000000  00000+0  00000-0 0  9990
2 42192  65.0000 192.0000 0000000   0.0000  12.0000 15.90815360    15
CTC2_L_00451017-04
1 42193U 26525OI  26070.40848380  .00000000  00000+0  00000-0 0  9998
2 42193  65.0000 192.0000 0000000   0.0000 102.0000 15.90815360    16
CTC2_L_00451018-01
1 42194U 24217MQ  26070.40848380  .00000000  00000+0  00000-0 0  9995
2 42194  65.0000 204.0000 0000000   0.0000 204.0000 15.90815360    14
CTC2_L_00451018-02
1 42195U 22227CH  26070.40848380  .00000000  00000+0  00000-0 0  9995
2 42195  65.0000 204.0000 0000000   0.0000 294.0000 15.90815360    14
CTC2_L_00451018-03
1 42196U 23518MD  26070.40848380  .00000000  00000+0  00000-0 0  9990
2 42196  65.0000 204.0000 0000000   0.0000  24.0000 15.90815360    16
CTC2_L_00451018-04
1 42197U 24264YA  26070.40848380  .00000000  00000+0  00000-0 0  9990
2 42197  65.0000 204.0000 0000000   0.0000 114.0000 15.90815360    17
CTC2_L_00451019-01
1 42198U 23500RS  26070.40848380  .00000000  00000+0  00000-0 0  9993
2 42198  65.0000 216.0000 0000000   0.0000 216.0000 15.90815360    14
CTC2_L_00451019-02
1 42199U 23339MM  26070.40848380  .00000000  00000+0  00000-0 0  9994
2 42199  65.0000 216.0000 0000000   0.0000 306.0000 15.90815360    15
CTC2_L_00451019-03
1 42200U 24049PU  26070.40848380  .00000000  00000+0  00000-0 0  9996
2 42200  65.0000 216.0000 0000000   0.0000  36.0000 15.90815360    18
CTC2_L_00451019-04
1 42201U 22407VS  26070.40848380  .00000000  00000+0  00000-0 0  9993
2 42201  65.0000 216.0000 0000000   0.0000 126.0000 15.90815360    19
CTC2_L_00451020-01
1 42202U 22449HS  26070.40848380  .00000000  00000+0  00000-0 0  9990
2 42202  65.0000 228.0000 0000000   0.0000 228.0000 15.90815360    16
CTC2_L_00451020-02
1 42203U 23573KI  26070.40848380  .00000000  00000+0  00000-0 0  9990
2 42203  65.0000 228.0000 0000000   0.0000 318.0000 15.90815360    17
CTC2_L_00451020-03
1 42204U 25034UA  26070.40848380  .00000000  00000+0  00000-0 0  9995
2 42204  65.0000 228.0000 0000000   0.0000  48.0000 15.90815360    18
CTC2_L_00451020-04
1 42205U 24401QF  26070.40848380  .00000000  00000+0  00000-0 0  9993
2 42205  65.0000 228.0000 0000000   0.0000 138.0000 15.90815360    19
CTC2_L_00451021-01
1 42206U 23626ZY  26070.40848380  .00000000  00000+0  00000-0 0  9992
2 42206  65.0000 240.0000 0000000   0.0000 240.0000 15.90815360    18
CTC2_L_00451021-02
1 42207U 26300KP  26070.40848380  .00000000  00000+0  00000-0 0  9995
2 42207  65.0000 240.0000 0000000   0.0000 330.0000 15.90815360    19
CTC2_L_00451021-03
1 42208U 23072IK  26070.40848380  .00000000  00000+0  00000-0 0  9999
2 42208  65.0000 240.0000 0000000   0.0000  60.0000 15.90815360    10
CTC2_L_00451021-04
1 42209U 24137MQ  26070.40848380  .00000000  00000+0  00000-0 0  9993
2 42209  65.0000 240.0000 0000000   0.0000 150.0000 15.90815360    11
CTC2_L_00451022-01
1 42210U 25358HL  26070.40848380  .00000000  00000+0  00000-0 0  9991
2 42210  65.0000 252.0000 0000000   0.0000 252.0000 15.90815360    19
CTC2_L_00451022-02
1 42211U 24898K   26070.40848380  .00000000  00000+0  00000-0 0  9990
2 42211  65.0000 252.0000 0000000   0.0000 342.0000 15.90815360    10
CTC2_L_00451022-03
1 42212U 24081OG  26070.40848380  .00000000  00000+0  00000-0 0  9995
2 42212  65.0000 252.0000 0000000   0.0000  72.0000 15.90815360    11
CTC2_L_00451022-04
1 42213U 26878SB  26070.40848380  .00000000  00000+0  00000-0 0  9992
2 42213  65.0000 252.0000 0000000   0.0000 162.0000 15.90815360    12
CTC2_L_00451023-01
1 42214U 26680LJ  26070.40848380  .00000000  00000+0  00000-0 0  9994
2 42214  65.0000 264.0000 0000000   0.0000 264.0000 15.90815360    19
CTC2_L_00451023-02
1 42215U 22777DY  26070.40848380  .00000000  00000+0  00000-0 0  9998
2 42215  65.0000 264.0000 0000000   0.0000 354.0000 15.90815360    10
CTC2_L_00451023-03
1 42216U 24791NQ  26070.40848380  .00000000  00000+0  00000-0 0  9997
2 42216  65.0000 264.0000 0000000   0.0000  84.0000 15.90815360    11
CTC2_L_00451023-04
1 42217U 24046SJ  26070.40848380  .00000000  00000+0  00000-0 0  9991
2 42217  65.0000 264.0000 0000000   0.0000 174.0000 15.90815360    12
CTC2_L_00451024-01
1 42218U 24732XB  26070.40848380  .00000000  00000+0  00000-0 0  9994
2 42218  65.0000 276.0000 0000000   0.0000 276.0000 15.90815360    19
CTC2_L_00451024-02
1 42219U 22001ZG  26070.40848380  .00000000  00000+0  00000-0 0  9992
2 42219  65.0000 276.0000 0000000   0.0000   6.0000 15.90815360    11
CTC2_L_00451024-03
1 42220U 24038HX  26070.40848380  .00000000  00000+0  00000-0 0  9996
2 42220  65.0000 276.0000 0000000   0.0000  96.0000 15.90815360    12
CTC2_L_00451024-04
1 42221U 26517DI  26070.40848380  .00000000  00000+0  00000-0 0  9991
2 42221  65.0000 276.0000 0000000   0.0000 186.0000 15.90815360    13
CTC2_L_00451025-01
1 42222U 24423JO  26070.40848380  .00000000  00000+0  00000-0 0  9996
2 42222  65.0000 288.0000 0000000   0.0000 288.0000 15.90815360    10
CTC2_L_00451025-02
1 42223U 24395VV  26070.40848380  .00000000  00000+0  00000-0 0  9995
2 42223  65.0000 288.0000 0000000   0.0000  18.0000 15.90815360    12
CTC2_L_00451025-03
1 42224U 24833CF  26070.40848380  .00000000  00000+0  00000-0 0  9993
2 42224  65.0000 288.0000 0000000   0.0000 108.0000 15.90815360    13
CTC2_L_00451025-04
1 42225U 26236IQ  26070.40848380  .00000000  00000+0  00000-0 0  9993
2 42225  65.0000 288.0000 0000000   0.0000 198.0000 15.90815360    13
CTC2_L_00451026-01
1 42226U 25203JV  26070.40848380  .00000000  00000+0  00000-0 0  9997
2 42226  65.0000 300.0000 0000000   0.0000 300.0000 15.90815360    14
CTC2_L_00451026-02
1 42227U 25153K   26070.40848380  .00000000  00000+0  00000-0 0  9992
2 42227  65.0000 300.0000 0000000   0.0000  30.0000 15.90815360    15
CTC2_L_00451026-03
1 42228U 25857GX  26070.40848380  .00000000  00000+0  00000-0 0  9994
2 42228  65.0000 300.0000 0000000   0.0000 120.0000 15.90815360    16
CTC2_L_00451026-04
1 42229U 23116IL  26070.40848380  .00000000  00000+0  00000-0 0  9991
2 42229  65.0000 300.0000 0000000   0.0000 210.0000 15.90815360    17
CTC2_L_00451027-01
1 42230U 23522UV  26070.40848380  .00000000  00000+0  00000-0 0  9994
2 42230  65.0000 312.0000 0000000   0.0000 312.0000 15.90815360    15
CTC2_L_00451027-02
1 42231U 25776TX  26070.40848380  .00000000  00000+0  00000-0 0  9998
2 42231  65.0000 312.0000 0000000   0.0000  42.0000 15.90815360    16
CTC2_L_00451027-03
1 42232U 23761AH  26070.40848380  .00000000  00000+0  00000-0 0  9991
2 42232  65.0000 312.0000 0000000   0.0000 132.0000 15.90815360    17
CTC2_L_00451027-04
1 42233U 25085KX  26070.40848380  .00000000  00000+0  00000-0 0  9993
2 42233  65.0000 312.0000 0000000   0.0000 222.0000 15.90815360    18
CTC2_L_00451028-01
1 42234U 25860PB  26070.40848380  .00000000  00000+0  00000-0 0  9995
2 42234  65.0000 324.0000 0000000   0.0000 324.0000 15.90815360    15
CTC2_L_00451028-02
1 42235U 23750GD  26070.40848380  .00000000  00000+0  00000-0 0  9992
2 42235  65.0000 324.0000 0000000   0.0000  54.0000 15.90815360    16
CTC2_L_00451028-03
1 42236U 25366KC  26070.40848380  .00000000  00000+0  00000-0 0  9998
2 42236  65.0000 324.0000 0000000   0.0000 144.0000 15.90815360    17
CTC2_L_00451028-04
1 42237U 23676CF  26070.40848380  .00000000  00000+0  00000-0 0  9991
2 42237  65.0000 324.0000 0000000   0.0000 234.0000 15.90815360    18
CTC2_L_00451029-01
1 42238U 23896EZ  26070.40848380  .00000000  00000+0  00000-0 0  9996
2 42238  65.0000 336.0000 0000000   0.0000 336.0000 15.90815360    15
CTC2_L_00451029-02
1 42239U 24314AO  26070.40848380  .00000000  00000+0  00000-0 0  9993
2 42239  65.0000 336.0000 0000000   0.0000  66.0000 15.90815360    16
CTC2_L_00451029-03
1 42240U 25725ZA  26070.40848380  .00000000  00000+0  00000-0 0  9992
2 42240  65.0000 336.0000 0000000   0.0000 156.0000 15.90815360    18
CTC2_L_00451029-04
1 42241U 24667XO  26070.40848380  .00000000  00000+0  00000-0 0  9997
2 42241  65.0000 336.0000 0000000   0.0000 246.0000 15.90815360    19
CTC2_L_00451030-01
1 42242U 22715FD  26070.40848380  .00000000  00000+0  00000-0 0  9990
2 42242  65.0000 348.0000 0000000   0.0000 348.0000 15.90815360    16
CTC2_L_00451030-02
1 42243U 25416LQ  26070.40848380  .00000000  00000+0  00000-0 0  9992
2 42243  65.0000 348.0000 0000000   0.0000  78.0000 15.90815360    17
CTC2_L_00451030-03
1 42244U 26205YD  26070.40848380  .00000000  00000+0  00000-0 0  9990
2 42244  65.0000 348.0000 0000000   0.0000 168.0000 15.90815360    18
CTC2_L_00451030-04
1 42245U 22086NK  26070.40848380  .00000000  00000+0  00000-0 0  9994
2 42245  65.0000 348.0000 0000000   0.0000 258.0000 15.90815360    19
